STARLINK-36455          
1 67418U 26005Q   26025.91668981 -.01439039  00000+0 -97474-2 0  9995
2 67418  43.0002 125.2202 0001330 272.0598 304.3905 15.76911608  3316
STARLINK-36424          
1 67419U 26005R   26025.91668981 -.01535037  00000+0 -10504-1 0  9999
2 67419  43.0001 125.2150 0001441 276.5794 301.9294 15.76879784  3310
STARLINK-35564          
1 67420U 26005S   26025.91668981 -.01545733  00000+0 -10604-1 0  9996
2 67420  43.0001 125.2105 0001296 280.9198 299.5774 15.76848179  3204
STARLINK-36431          
1 67421U 26005T   26025.91668981 -.01566833  00000+0 -10785-1 0  9991
2 67421  43.0003 125.2051 0001456 277.0751 305.4219 15.76814819  3101
STARLINK-36418          
1 67422U 26005U   26025.91668981 -.01572775  00000+0 -10837-1 0  9992
2 67422  43.0000 125.2004 0001130 278.4670 305.9604 15.76809610  3264
STARLINK-36465          
1 67423U 26005V   26025.91668981 -.01575959  00000+0 -10895-1 0  9994
2 67423  43.0004 125.1952 0001404 279.1769 307.3007 15.76738935  3052
STARLINK-36362          
1 67424U 26005W   26025.91668981 -.01566828  00000+0 -10849-1 0  9999
2 67424  43.0005 125.1904 0001337 275.4436 313.0488 15.76686136  3317
STARLINK-36447          
1 67425U 26005X   26025.91668981 -.01560177  00000+0 -10831-1 0  9992
2 67425  43.0002 125.1853 0001485 273.5135 317.0129 15.76611423  3310
STARLINK-36146          
1 67426U 26005Y   26025.91668981 -.01565427  00000+0 -10899-1 0  9990
2 67426  43.0004 125.1792 0001360 270.0883 322.4428 15.76559848  3267
STARLINK-36459          
1 67427U 26005Z   26025.91668981 -.01543592  00000+0 -10753-1 0  9999
2 67427  43.0002 125.1739 0001239 276.7042 317.8163 15.76503217  3232
STARLINK-36464          
1 67428U 26005AA  26025.91668981 -.01560199  00000+0 -10900-1 0  9996
2 67428  43.0004 125.1644 0001376 274.9749 323.4398 15.76471427  3315
STARLINK-36513          
1 67429U 26005AB  26025.91668981 -.01573299  00000+0 -11011-1 0  9996
2 67429  43.0003 125.1598 0001571 271.3811 328.9784 15.76458564  3317
