CCSDS_OMM_VERS = 2.0
CREATION_DATE  = 
ORIGINATOR     = 

OBJECT_NAME    = STARLINK-36455
OBJECT_ID      = 2026-005Q
CENTER_NAME    = EARTH
REF_FRAME      = TEME
TIME_SYSTEM    = UTC
MEAN_ELEMENT_THEORY = SGP/SGP4

EPOCH          = 2026-01-25T22:00:01.999584
MEAN_MOTION    = 15.76911608
ECCENTRICITY   = .00013303
INCLINATION    = 43.0002
RA_OF_ASC_NODE = 125.2202
ARG_OF_PERICENTER = 272.0598
MEAN_ANOMALY   = 304.3905

EPHEMERIS_TYPE = 0
CLASSIFICATION_TYPE = U
NORAD_CAT_ID   = 67418
ELEMENT_SET_NO = 999
REV_AT_EPOCH   = 331
BSTAR          = -.97474489E-2
MEAN_MOTION_DOT = -.1439039E-1
MEAN_MOTION_DDOT = 0

CCSDS_OMM_VERS = 2.0
CREATION_DATE  = 
ORIGINATOR     = 

OBJECT_NAME    = STARLINK-36424
OBJECT_ID      = 2026-005R
CENTER_NAME    = EARTH
REF_FRAME      = TEME
TIME_SYSTEM    = UTC
MEAN_ELEMENT_THEORY = SGP/SGP4

EPOCH          = 2026-01-25T22:00:01.999584
MEAN_MOTION    = 15.76879784
ECCENTRICITY   = .00014419
INCLINATION    = 43.0001
RA_OF_ASC_NODE = 125.2150
ARG_OF_PERICENTER = 276.5794
MEAN_ANOMALY   = 301.9294

EPHEMERIS_TYPE = 0
CLASSIFICATION_TYPE = U
NORAD_CAT_ID   = 67419
ELEMENT_SET_NO = 999
REV_AT_EPOCH   = 331
BSTAR          = -.10504485E-1
MEAN_MOTION_DOT = -.1535037E-1
MEAN_MOTION_DDOT = 0

CCSDS_OMM_VERS = 2.0
CREATION_DATE  = 
ORIGINATOR     = 

OBJECT_NAME    = STARLINK-35564
OBJECT_ID      = 2026-005S
CENTER_NAME    = EARTH
REF_FRAME      = TEME
TIME_SYSTEM    = UTC
MEAN_ELEMENT_THEORY = SGP/SGP4

EPOCH          = 2026-01-25T22:00:01.999584
MEAN_MOTION    = 15.76848179
ECCENTRICITY   = .00012966
INCLINATION    = 43.0001
RA_OF_ASC_NODE = 125.2105
ARG_OF_PERICENTER = 280.9198
MEAN_ANOMALY   = 299.5774

EPHEMERIS_TYPE = 0
CLASSIFICATION_TYPE = U
NORAD_CAT_ID   = 67420
ELEMENT_SET_NO = 999
REV_AT_EPOCH   = 320
BSTAR          = -.10604135E-1
MEAN_MOTION_DOT = -.1545733E-1
MEAN_MOTION_DDOT = 0

CCSDS_OMM_VERS = 2.0
CREATION_DATE  = 
ORIGINATOR     = 

OBJECT_NAME    = STARLINK-36431
OBJECT_ID      = 2026-005T
CENTER_NAME    = EARTH
REF_FRAME      = TEME
TIME_SYSTEM    = UTC
MEAN_ELEMENT_THEORY = SGP/SGP4

EPOCH          = 2026-01-25T22:00:01.999584
MEAN_MOTION    = 15.76814819
ECCENTRICITY   = .00014567
INCLINATION    = 43.0003
RA_OF_ASC_NODE = 125.2051
ARG_OF_PERICENTER = 277.0751
MEAN_ANOMALY   = 305.4219

EPHEMERIS_TYPE = 0
CLASSIFICATION_TYPE = U
NORAD_CAT_ID   = 67421
ELEMENT_SET_NO = 999
REV_AT_EPOCH   = 310
BSTAR          = -.10785452E-1
MEAN_MOTION_DOT = -.1566833E-1
MEAN_MOTION_DDOT = 0

CCSDS_OMM_VERS = 2.0
CREATION_DATE  = 
ORIGINATOR     = 

OBJECT_NAME    = STARLINK-36418
OBJECT_ID      = 2026-005U
CENTER_NAME    = EARTH
REF_FRAME      = TEME
TIME_SYSTEM    = UTC
MEAN_ELEMENT_THEORY = SGP/SGP4

EPOCH          = 2026-01-25T22:00:01.999584
MEAN_MOTION    = 15.76809610
ECCENTRICITY   = .00011304
INCLINATION    = 43.0000
RA_OF_ASC_NODE = 125.2004
ARG_OF_PERICENTER = 278.4670
MEAN_ANOMALY   = 305.9604

EPHEMERIS_TYPE = 0
CLASSIFICATION_TYPE = U
NORAD_CAT_ID   = 67422
ELEMENT_SET_NO = 999
REV_AT_EPOCH   = 326
BSTAR          = -.10836846E-1
MEAN_MOTION_DOT = -.1572775E-1
MEAN_MOTION_DDOT = 0

CCSDS_OMM_VERS = 2.0
CREATION_DATE  = 
ORIGINATOR     = 

OBJECT_NAME    = STARLINK-36465
OBJECT_ID      = 2026-005V
CENTER_NAME    = EARTH
REF_FRAME      = TEME
TIME_SYSTEM    = UTC
MEAN_ELEMENT_THEORY = SGP/SGP4

EPOCH          = 2026-01-25T22:00:01.999584
MEAN_MOTION    = 15.76738935
ECCENTRICITY   = .00014042
INCLINATION    = 43.0004
RA_OF_ASC_NODE = 125.1952
ARG_OF_PERICENTER = 279.1769
MEAN_ANOMALY   = 307.3007

EPHEMERIS_TYPE = 0
CLASSIFICATION_TYPE = U
NORAD_CAT_ID   = 67423
ELEMENT_SET_NO = 999
REV_AT_EPOCH   = 305
BSTAR          = -.10895031E-1
MEAN_MOTION_DOT = -.1575959E-1
MEAN_MOTION_DDOT = 0

CCSDS_OMM_VERS = 2.0
CREATION_DATE  = 
ORIGINATOR     = 

OBJECT_NAME    = STARLINK-36362
OBJECT_ID      = 2026-005W
CENTER_NAME    = EARTH
REF_FRAME      = TEME
TIME_SYSTEM    = UTC
MEAN_ELEMENT_THEORY = SGP/SGP4

EPOCH          = 2026-01-25T22:00:01.999584
MEAN_MOTION    = 15.76686136
ECCENTRICITY   = .00013374
INCLINATION    = 43.0005
RA_OF_ASC_NODE = 125.1904
ARG_OF_PERICENTER = 275.4436
MEAN_ANOMALY   = 313.0488

EPHEMERIS_TYPE = 0
CLASSIFICATION_TYPE = U
NORAD_CAT_ID   = 67424
ELEMENT_SET_NO = 999
REV_AT_EPOCH   = 331
BSTAR          = -.10848685E-1
MEAN_MOTION_DOT = -.1566828E-1
MEAN_MOTION_DDOT = 0

CCSDS_OMM_VERS = 2.0
CREATION_DATE  = 
ORIGINATOR     = 

OBJECT_NAME    = STARLINK-36447
OBJECT_ID      = 2026-005X
CENTER_NAME    = EARTH
REF_FRAME      = TEME
TIME_SYSTEM    = UTC
MEAN_ELEMENT_THEORY = SGP/SGP4

EPOCH          = 2026-01-25T22:00:01.999584
MEAN_MOTION    = 15.76611423
ECCENTRICITY   = .00014852
INCLINATION    = 43.0002
RA_OF_ASC_NODE = 125.1853
ARG_OF_PERICENTER = 273.5135
MEAN_ANOMALY   = 317.0129

EPHEMERIS_TYPE = 0
CLASSIFICATION_TYPE = U
NORAD_CAT_ID   = 67425
ELEMENT_SET_NO = 999
REV_AT_EPOCH   = 331
BSTAR          = -.10831291E-1
MEAN_MOTION_DOT = -.1560177E-1
MEAN_MOTION_DDOT = 0

CCSDS_OMM_VERS = 2.0
CREATION_DATE  = 
ORIGINATOR     = 

OBJECT_NAME    = STARLINK-36146
OBJECT_ID      = 2026-005Y
CENTER_NAME    = EARTH
REF_FRAME      = TEME
TIME_SYSTEM    = UTC
MEAN_ELEMENT_THEORY = SGP/SGP4

EPOCH          = 2026-01-25T22:00:01.999584
MEAN_MOTION    = 15.76559848
ECCENTRICITY   = .000136
INCLINATION    = 43.0004
RA_OF_ASC_NODE = 125.1792
ARG_OF_PERICENTER = 270.0883
MEAN_ANOMALY   = 322.4428

EPHEMERIS_TYPE = 0
CLASSIFICATION_TYPE = U
NORAD_CAT_ID   = 67426
ELEMENT_SET_NO = 999
REV_AT_EPOCH   = 326
BSTAR          = -.10899042E-1
MEAN_MOTION_DOT = -.1565427E-1
MEAN_MOTION_DDOT = 0

CCSDS_OMM_VERS = 2.0
CREATION_DATE  = 
ORIGINATOR     = 

OBJECT_NAME    = STARLINK-36459
OBJECT_ID      = 2026-005Z
CENTER_NAME    = EARTH
REF_FRAME      = TEME
TIME_SYSTEM    = UTC
MEAN_ELEMENT_THEORY = SGP/SGP4

EPOCH          = 2026-01-25T22:00:01.999584
MEAN_MOTION    = 15.76503217
ECCENTRICITY   = .00012398
INCLINATION    = 43.0002
RA_OF_ASC_NODE = 125.1739
ARG_OF_PERICENTER = 276.7042
MEAN_ANOMALY   = 317.8163

EPHEMERIS_TYPE = 0
CLASSIFICATION_TYPE = U
NORAD_CAT_ID   = 67427
ELEMENT_SET_NO = 999
REV_AT_EPOCH   = 323
BSTAR          = -.10752947E-1
MEAN_MOTION_DOT = -.1543592E-1
MEAN_MOTION_DDOT = 0

CCSDS_OMM_VERS = 2.0
CREATION_DATE  = 
ORIGINATOR     = 

OBJECT_NAME    = STARLINK-36464
OBJECT_ID      = 2026-005AA
CENTER_NAME    = EARTH
REF_FRAME      = TEME
TIME_SYSTEM    = UTC
MEAN_ELEMENT_THEORY = SGP/SGP4

EPOCH          = 2026-01-25T22:00:01.999584
MEAN_MOTION    = 15.76471427
ECCENTRICITY   = .00013767
INCLINATION    = 43.0004
RA_OF_ASC_NODE = 125.1644
ARG_OF_PERICENTER = 274.9749
MEAN_ANOMALY   = 323.4398

EPHEMERIS_TYPE = 0
CLASSIFICATION_TYPE = U
NORAD_CAT_ID   = 67428
ELEMENT_SET_NO = 999
REV_AT_EPOCH   = 331
BSTAR          = -.10900345E-1
MEAN_MOTION_DOT = -.1560199E-1
MEAN_MOTION_DDOT = 0

CCSDS_OMM_VERS = 2.0
CREATION_DATE  = 
ORIGINATOR     = 

OBJECT_NAME    = STARLINK-36513
OBJECT_ID      = 2026-005AB
CENTER_NAME    = EARTH
REF_FRAME      = TEME
TIME_SYSTEM    = UTC
MEAN_ELEMENT_THEORY = SGP/SGP4

EPOCH          = 2026-01-25T22:00:01.999584
MEAN_MOTION    = 15.76458564
ECCENTRICITY   = .00015719
INCLINATION    = 43.0003
RA_OF_ASC_NODE = 125.1598
ARG_OF_PERICENTER = 271.3811
MEAN_ANOMALY   = 328.9784

EPHEMERIS_TYPE = 0
CLASSIFICATION_TYPE = U
NORAD_CAT_ID   = 67429
ELEMENT_SET_NO = 999
REV_AT_EPOCH   = 331
BSTAR          = -.11010632E-1
MEAN_MOTION_DOT = -.1573299E-1
MEAN_MOTION_DDOT = 0

